[{"OBJECT_NAME":"SALSAT","OBJECT_ID":"2020-068K","EPOCH":"2026-03-09T22:26:21.804576","MEAN_MOTION":15.28191989,"ECCENTRICITY":0.00082652,"INCLINATION":97.8859,"RA_OF_ASC_NODE":66.0795,"ARG_OF_PERICENTER":295.8051,"MEAN_ANOMALY":64.2334,"EPHEMERIS_TYPE":0,"CLASSIFICATION_TYPE":"U","NORAD_CAT_ID":46495,"ELEMENT_SET_NO":999,"REV_AT_EPOCH":30019,"BSTAR":0.00040842582,"MEAN_MOTION_DOT":0.00011156,"MEAN_MOTION_DDOT":0},{"OBJECT_NAME":"STARLINK-32647","OBJECT_ID":"2024-229J","EPOCH":"2026-03-09T21:47:24.710496","MEAN_MOTION":15.27594824,"ECCENTRICITY":0.0001627,"INCLINATION":42.9992,"RA_OF_ASC_NODE":269.5754,"ARG_OF_PERICENTER":275.0124,"MEAN_ANOMALY":85.0542,"EPHEMERIS_TYPE":0,"CLASSIFICATION_TYPE":"U","NORAD_CAT_ID":62200,"ELEMENT_SET_NO":999,"REV_AT_EPOCH":7059,"BSTAR":0.00089964588,"MEAN_MOTION_DOT":0.00024588,"MEAN_MOTION_DDOT":0}]
